STARLINK-4335           
1 53215U 22084AC  22210.58334491 -.01286395  00000+0 -98479-2 0  9990
2 53215  97.6556 268.6400 0001782 104.8241 130.6618 15.74619295  1308
STARLINK-4376           
1 53216U 22084AD  22210.58334491 -.01286321  00000+0 -98867-2 0  9991
2 53216  97.6556 268.6391 0001783 104.3985 129.5353 15.74527317  1305
STARLINK-4379           
1 53217U 22084AE  22210.58334491 -.01285792  00000+0 -98226-2 0  9992
2 53217  97.6556 268.6404 0001746  96.0320 140.2151 15.74666830  1300
STARLINK-4384           
1 53218U 22084AF  22210.58334491 -.01285036  00000+0 -98562-2 0  9997
2 53218  97.6556 268.6395 0001742  84.9549 149.7524 15.74573272  1300
STARLINK-4373           
1 53219U 22084AG  22210.58334491 -.01285523  00000+0 -97905-2 0  9999
2 53219  97.6556 268.6409 0001736  91.3783 146.0146 15.74736829  1301
STARLINK-4363           
1 53220U 22084AH  22210.58334491 -.01285245  00000+0 -98272-2 0  9990
2 53220  97.6556 268.6400 0001738  87.8552 147.9966 15.74645256  1303
STARLINK-4377           
1 53221U 22084AJ  22210.58334491 -.01285797  00000+0 -97835-2 0  9997
2 53221  97.6556 268.6411 0001742  95.5329 142.2504 15.74758647  1304
STARLINK-4381           
1 53222U 22084AK  22210.58334491 -.01286585  00000+0 -98187-2 0  9995
2 53222  97.6556 268.6404 0001792 106.8370 129.7893 15.74691256  1307
STARLINK-4354           
1 53223U 22084AL  22210.58334491 -.01286006  00000+0 -97650-2 0  9998
2 53223  97.6556 268.6415 0001747  98.1741 140.3641 15.74806224  1308
STARLINK-4356           
1 53224U 22084AM  22210.58334491 -.01286227  00000+0 -98059-2 0  9998
2 53224  97.6556 268.6406 0001764 101.8622 135.1462 15.74714409  1304
STARLINK-4358           
1 53225U 22084AN  22210.58334491 -.01286226  00000+0 -97487-2 0  9992
2 53225  97.6556 268.6419 0001756 101.0607 138.2588 15.74848850  1306
STARLINK-4359           
1 53226U 22084AP  22210.58334491 -.01286100  00000+0 -97753-2 0  9990
2 53226  97.6556 268.6412 0001753  99.6377 138.5161 15.74783807  1303
STARLINK-4366           
1 53227U 22084AQ  22210.58334491 -.01286235  00000+0 -97284-2 0  9999
2 53227  97.6556 268.6422 0001753 100.6705 139.3949 15.74896897  1300
STARLINK-4365           
1 53228U 22084AR  22210.58334491 -.01286430  00000+0 -97593-2 0  9990
2 53228  97.6556 268.6415 0001770 103.8571 135.0714 15.74827816  1306
STARLINK-4367           
1 53229U 22084AS  22210.58334491 -.01286721  00000+0 -97220-2 0  9991
2 53229  97.6556 268.6425 0001787 107.2023 133.2343 15.74921289  1303
STARLINK-4364           
1 53230U 22084AT  22210.58334491 -.01285410  00000+0 -97325-2 0  9993
2 53230  97.6556 268.6419 0001730  88.3288 151.3720 15.74871089  1300
STARLINK-4370           
1 53231U 22084AU  22210.58334491 -.01286071  00000+0 -96986-2 0  9990
2 53231  97.6556 268.6428 0001742  98.0796 143.1278 15.74964135  1308
STARLINK-4371           
1 53232U 22084AV  22210.58334491 -.01285761  00000+0 -97050-2 0  9999
2 53232  97.6556 268.6424 0001732  93.6616 147.1571 15.74942952  1309
STARLINK-4372           
1 53233U 22084AW  22210.58334491 -.01286378  00000+0 -96909-2 0  9997
2 53233  97.6556 268.6430 0001757 102.2385 139.3388 15.74988281  1308
STARLINK-4368           
1 53234U 22084AX  22210.58334491 -.01286366  00000+0 -96806-2 0  9991
2 53234  97.6556 268.6430 0001755 101.9360 140.0094 15.75012444  1309
FALCON 9 DEB            
1 53235U 22084AY  22210.59063194  .00093909  00000+0  36617-3 0  9993
2 53235  97.6763 268.7113 0009513 235.6737 124.3634 15.86753852  1247
FALCON 9 DEB            
1 53236U 22084AZ  22210.58916402  .00098701  00000+0  37813-3 0  9996
2 53236  97.6744 268.7112 0007740 219.6902 140.3803 15.87128089  1247
FALCON 9 DEB            
1 53237U 22084BA  22210.77380711  .00107449  64248-5  39415-3 0  9996
2 53237  97.6706 268.9259 0012757 215.9869 144.0544 15.88250412  1278
FALCON 9 DEB            
1 53238U 22084BB  22210.77249232  .00106293  63505-5  38463-3 0  9992
2 53238  97.6691 268.9259 0012316 202.9996 157.0725 15.88536371  1276
CSS (WENTIAN)           
1 53239U 22085A   22210.49552410  .00005581  00000+0  67340-4 0  9998
2 53239  41.4749 321.2838 0006648 304.1282 155.6826 15.61428996 71387
CZ-5B R/B               
1 53240U 22085B   22211.06361692  .04711435  79506-5  39930-3 0  9996
2 53240  41.4811 314.6898 0025639 224.8425 315.1261 16.37141647   937
STARLINK-4056           
1 53242U 22086A   22210.91667824 -.01304692  47078-3 -49273-2 0  9997
2 53242  53.2173  16.9503 0028459  56.1237  47.5692 15.86406827  1477
STARLINK-4047           
1 53243U 22086B   22210.91667824 -.01304097  47016-3 -49296-2 0  9994
2 53243  53.2173  16.9530 0029171  56.0856  46.7784 15.86353346  1476
STARLINK-4125           
1 53244U 22086C   22210.91667824 -.01304762  47090-3 -49228-2 0  9991
2 53244  53.2173  16.9500 0028488  56.0096  47.9521 15.86424957  1479
STARLINK-4124           
1 53245U 22086D   22210.91667824 -.01304395  47043-3 -49316-2 0  9990
2 53245  53.2173  16.9526 0028723  56.3185  46.8122 15.86371776  1477
STARLINK-4131           
1 53246U 22086E   22210.91667824 -.01304628  47066-3 -49312-2 0  9991
2 53246  53.2173  16.9513 0028476  56.0857  47.3322 15.86389020  1471
STARLINK-4061           
1 53247U 22086F   22210.91667824 -.01304817  47101-3 -49186-2 0  9991
2 53247  53.2173  16.9502 0028501  56.0524  48.1899 15.86442403  1473
STARLINK-4135           
1 53248U 22086G   22210.91667824 -.01305557  47157-3 -49281-2 0  9991
2 53248  53.2173  16.9491 0027548  55.4912  49.0287 15.86460326  1470
STARLINK-4128           
1 53249U 22086H   22210.91667824 -.01305300  47163-3 -49069-2 0  9999
2 53249  53.2173  16.9482 0028166  55.8810  49.4473 15.86514092  1470
STARLINK-4059           
1 53250U 22086J   22210.91667824 -.01305637  47170-3 -49250-2 0  9994
2 53250  53.2173  16.9486 0027487  55.6426  49.1689 15.86477132  1471
STARLINK-4129           
1 53251U 22086K   22210.91667824 -.01304964  47156-3 -48897-2 0  9997
2 53251  53.2173  16.9472 0028788  56.1485  49.7222 15.86549564  1471
STARLINK-4132           
1 53252U 22086L   22210.91667824 -.01305019  47137-3 -49070-2 0  9993
2 53252  53.2173  16.9482 0028440  56.1107  48.9460 15.86496136  1470
STARLINK-4133           
1 53253U 22086M   22210.91667824 -.01304639  47142-3 -48780-2 0  9994
2 53253  53.2173  16.9466 0029314  56.4637  49.6848 15.86566817  1477
STARLINK-4134           
1 53254U 22086N   22210.91667824 -.01304913  47146-3 -48939-2 0  9990
2 53254  53.2173  16.9472 0028776  56.2252  49.3683 15.86532062  1476
STARLINK-4142           
1 53255U 22086P   22210.91667824 -.01304911  47175-3 -48720-2 0  9999
2 53255  53.2173  16.9456 0029199  56.2451  50.4622 15.86601529  1471
STARLINK-4147           
1 53256U 22086Q   22210.91667824 -.01305023  47175-3 -48797-2 0  9999
2 53256  53.2173  16.9456 0028929  56.1692  50.2493 15.86584816  1471
STARLINK-4144           
1 53257U 22086R   22210.91667824 -.01305570  47242-3 -48680-2 0  9993
2 53257  53.2173  16.9441 0028632  55.7806  51.7163 15.86656181  1474
STARLINK-4127           
1 53258U 22086S   22210.91667824 -.01305353  47212-3 -48763-2 0  9992
2 53258  53.2173  16.9446 0028601  56.1592  50.8091 15.86620005  1479
STARLINK-4140           
1 53259U 22086T   22210.91667824 -.01305549  47248-3 -48624-2 0  9995
2 53259  53.2173  16.9436 0028760  55.8120  51.9753 15.86672773  1474
STARLINK-4136           
1 53260U 22086U   22210.91667824 -.01305710  47243-3 -48761-2 0  9994
2 53260  53.2173  16.9441 0028390  55.4776  51.7846 15.86636621  1477
STARLINK-4062           
1 53261U 22086V   22210.91667824 -.01305972  47298-3 -48546-2 0  9996
2 53261  53.2173  16.9421 0028477  55.7257  52.8809 15.86725430  1477
STARLINK-4085           
1 53262U 22086W   22210.91667824 -.01305729  47267-3 -48605-2 0  9999
2 53262  53.2173  16.9426 0028605  55.7440  52.3050 15.86690992  1477
STARLINK-4130           
1 53263U 22086X   22210.91667824 -.01306314  47329-3 -48448-2 0  9995
2 53263  53.2173  16.9416 0029047  56.0541  52.8131 15.86743497  1478
STARLINK-3950           
1 53264U 22086Y   22210.91667824 -.01305878  47284-3 -48592-2 0  9990
2 53264  53.2173  16.9421 0028427  55.9848  52.3596 15.86707329  1478
STARLINK-4097           
1 53265U 22086Z   22210.91667824 -.01306931  47384-3 -48457-2 0  9993
2 53265  53.2173  16.9406 0028444  55.7886  53.6200 15.86778843  1476
STARLINK-4058           
1 53266U 22086AA  22210.91667824 -.01307168  47392-3 -48561-2 0  9992
2 53266  53.2173  16.9405 0027992  55.5543  53.5895 15.86761120  1470
STARLINK-4060           
1 53267U 22086AB  22210.91667824 -.01306952  47408-3 -48301-2 0  9993
2 53267  53.2173  16.9389 0028738  55.9432  54.3083 15.86829648  1470
STARLINK-4109           
1 53268U 22086AC  22210.91667824 -.01306368  47355-3 -48287-2 0  9999
2 53268  53.2173  16.9395 0029348  56.1588  53.5173 15.86796251  1475
STARLINK-4057           
1 53269U 22086AD  22210.91667824 -.01306824  47415-3 -48161-2 0  9995
2 53269  53.2173  16.9379 0029157  56.1023  54.6748 15.86865283  1472
STARLINK-4113           
1 53270U 22086AE  22210.91667824  .00333038  57452-4  49375-3 0  9993
2 53270  53.2201  16.7569 0072386  62.4971 134.7565 15.99226323  1476
STARLINK-4069           
1 53271U 22086AF  22210.91667824 -.01306949  47439-3 -48064-2 0  9994
2 53271  53.2173  16.9369 0029259  56.0958  55.1759 15.86902585  1478
STARLINK-4122           
1 53272U 22086AG  22210.91667824 -.01306695  47399-3 -48210-2 0  9991
2 53272  53.2173  16.9380 0029024  56.6202  53.8556 15.86849446  1476
STARLINK-4051           
1 53273U 22086AH  22210.91667824 -.01307674  47502-3 -48086-2 0  9997
2 53273  53.2173  16.9359 0028589  55.5283  56.2832 15.86937681  1478
STARLINK-4050           
1 53274U 22086AJ  22210.91667824 -.01306818  47422-3 -48088-2 0  9990
2 53274  53.2173  16.9369 0029384  55.9045  55.1127 15.86884302  1470
